CCSDS_OMM_VERS = 2.0
CREATION_DATE  = 
ORIGINATOR     = 

OBJECT_NAME    = ISS OBJECT XW
OBJECT_ID      = 1998-067XW
CENTER_NAME    = EARTH
REF_FRAME      = TEME
TIME_SYSTEM    = UTC
MEAN_ELEMENT_THEORY = SGP/SGP4

EPOCH          = 2026-02-21T16:34:52.027680
MEAN_MOTION    = 15.64342363
ECCENTRICITY   = .00036905
INCLINATION    = 51.6251
RA_OF_ASC_NODE = 146.8152
ARG_OF_PERICENTER = 8.9060
MEAN_ANOMALY   = 351.2000

EPHEMERIS_TYPE = 0
CLASSIFICATION_TYPE = U
NORAD_CAT_ID   = 66910
ELEMENT_SET_NO = 999
REV_AT_EPOCH   = 1267
BSTAR          = .10281272E-2
MEAN_MOTION_DOT = .101077E-2
MEAN_MOTION_DDOT = 0

CCSDS_OMM_VERS = 2.0
CREATION_DATE  = 
ORIGINATOR     = 

OBJECT_NAME    = ISS OBJECT XX
OBJECT_ID      = 1998-067XX
CENTER_NAME    = EARTH
REF_FRAME      = TEME
TIME_SYSTEM    = UTC
MEAN_ELEMENT_THEORY = SGP/SGP4

EPOCH          = 2026-02-21T19:25:31.512864
MEAN_MOTION    = 15.68378638
ECCENTRICITY   = .00056275
INCLINATION    = 51.6239
RA_OF_ASC_NODE = 145.3512
ARG_OF_PERICENTER = 1.9750
MEAN_ANOMALY   = 358.1268

EPHEMERIS_TYPE = 0
CLASSIFICATION_TYPE = U
NORAD_CAT_ID   = 66911
ELEMENT_SET_NO = 999
REV_AT_EPOCH   = 1269
BSTAR          = .13072762E-2
MEAN_MOTION_DOT = .152463E-2
MEAN_MOTION_DDOT = 0

CCSDS_OMM_VERS = 2.0
CREATION_DATE  = 
ORIGINATOR     = 

OBJECT_NAME    = ISS OBJECT XY
OBJECT_ID      = 1998-067XY
CENTER_NAME    = EARTH
REF_FRAME      = TEME
TIME_SYSTEM    = UTC
MEAN_ELEMENT_THEORY = SGP/SGP4

EPOCH          = 2026-02-21T15:39:17.251200
MEAN_MOTION    = 15.60740369
ECCENTRICITY   = .00017578
INCLINATION    = 51.6280
RA_OF_ASC_NODE = 148.0679
ARG_OF_PERICENTER = 11.8811
MEAN_ANOMALY   = 348.2224

EPHEMERIS_TYPE = 0
CLASSIFICATION_TYPE = U
NORAD_CAT_ID   = 66912
ELEMENT_SET_NO = 999
REV_AT_EPOCH   = 1264
BSTAR          = .84165416E-3
MEAN_MOTION_DOT = .71488E-3
MEAN_MOTION_DDOT = 0

CCSDS_OMM_VERS = 2.0
CREATION_DATE  = 
ORIGINATOR     = 

OBJECT_NAME    = ISS OBJECT XZ
OBJECT_ID      = 1998-067XZ
CENTER_NAME    = EARTH
REF_FRAME      = TEME
TIME_SYSTEM    = UTC
MEAN_ELEMENT_THEORY = SGP/SGP4

EPOCH          = 2026-02-21T11:48:31.702176
MEAN_MOTION    = 15.50458827
ECCENTRICITY   = .00100736
INCLINATION    = 51.6314
RA_OF_ASC_NODE = 152.2476
ARG_OF_PERICENTER = 132.3559
MEAN_ANOMALY   = 227.8285

EPHEMERIS_TYPE = 0
CLASSIFICATION_TYPE = U
NORAD_CAT_ID   = 67683
ELEMENT_SET_NO = 999
REV_AT_EPOCH   = 227
BSTAR          = .68048379E-3
MEAN_MOTION_DOT = .3928E-3
MEAN_MOTION_DDOT = 0

CCSDS_OMM_VERS = 2.0
CREATION_DATE  = 
ORIGINATOR     = 

OBJECT_NAME    = GXIBA-1
OBJECT_ID      = 1998-067YA
CENTER_NAME    = EARTH
REF_FRAME      = TEME
TIME_SYSTEM    = UTC
MEAN_ELEMENT_THEORY = SGP/SGP4

EPOCH          = 2026-02-21T11:36:49.944096
MEAN_MOTION    = 15.51722963
ECCENTRICITY   = .00117035
INCLINATION    = 51.6313
RA_OF_ASC_NODE = 152.1932
ARG_OF_PERICENTER = 125.0335
MEAN_ANOMALY   = 235.1755

EPHEMERIS_TYPE = 0
CLASSIFICATION_TYPE = U
NORAD_CAT_ID   = 67684
ELEMENT_SET_NO = 999
REV_AT_EPOCH   = 227
BSTAR          = .12030987E-2
MEAN_MOTION_DOT = .73407E-3
MEAN_MOTION_DDOT = 0

CCSDS_OMM_VERS = 2.0
CREATION_DATE  = 
ORIGINATOR     = 

OBJECT_NAME    = CORAL
OBJECT_ID      = 1998-067YB
CENTER_NAME    = EARTH
REF_FRAME      = TEME
TIME_SYSTEM    = UTC
MEAN_ELEMENT_THEORY = SGP/SGP4

EPOCH          = 2026-02-21T11:46:22.341504
MEAN_MOTION    = 15.50667475
ECCENTRICITY   = .00120287
INCLINATION    = 51.6309
RA_OF_ASC_NODE = 152.2369
ARG_OF_PERICENTER = 128.6764
MEAN_ANOMALY   = 231.5303

EPHEMERIS_TYPE = 0
CLASSIFICATION_TYPE = U
NORAD_CAT_ID   = 67685
ELEMENT_SET_NO = 999
REV_AT_EPOCH   = 227
BSTAR          = .74045553E-3
MEAN_MOTION_DOT = .43161E-3
MEAN_MOTION_DDOT = 0

CCSDS_OMM_VERS = 2.0
CREATION_DATE  = 
ORIGINATOR     = 

OBJECT_NAME    = ISS OBJECT YC
OBJECT_ID      = 1998-067YC
CENTER_NAME    = EARTH
REF_FRAME      = TEME
TIME_SYSTEM    = UTC
MEAN_ELEMENT_THEORY = SGP/SGP4

EPOCH          = 2026-02-21T11:44:10.470912
MEAN_MOTION    = 15.50924553
ECCENTRICITY   = .00077168
INCLINATION    = 51.6316
RA_OF_ASC_NODE = 152.2270
ARG_OF_PERICENTER = 100.0521
MEAN_ANOMALY   = 260.1340

EPHEMERIS_TYPE = 0
CLASSIFICATION_TYPE = U
NORAD_CAT_ID   = 67686
ELEMENT_SET_NO = 999
REV_AT_EPOCH   = 227
BSTAR          = .87490753E-3
MEAN_MOTION_DOT = .51525E-3
MEAN_MOTION_DDOT = 0

CCSDS_OMM_VERS = 2.0
CREATION_DATE  = 
ORIGINATOR     = 

OBJECT_NAME    = LEOPARD
OBJECT_ID      = 1998-067YD
CENTER_NAME    = EARTH
REF_FRAME      = TEME
TIME_SYSTEM    = UTC
MEAN_ELEMENT_THEORY = SGP/SGP4

EPOCH          = 2026-02-21T17:58:29.571168
MEAN_MOTION    = 15.50600655
ECCENTRICITY   = .0007779
INCLINATION    = 51.6313
RA_OF_ASC_NODE = 150.9634
ARG_OF_PERICENTER = 103.3723
MEAN_ANOMALY   = 256.8134

EPHEMERIS_TYPE = 0
CLASSIFICATION_TYPE = U
NORAD_CAT_ID   = 67687
ELEMENT_SET_NO = 999
REV_AT_EPOCH   = 223
BSTAR          = .67079706E-3
MEAN_MOTION_DOT = .38879E-3
MEAN_MOTION_DDOT = 0

CCSDS_OMM_VERS = 2.0
CREATION_DATE  = 
ORIGINATOR     = 

OBJECT_NAME    = ISS OBJECT YE
OBJECT_ID      = 1998-067YE
CENTER_NAME    = EARTH
REF_FRAME      = TEME
TIME_SYSTEM    = UTC
MEAN_ELEMENT_THEORY = SGP/SGP4

EPOCH          = 2026-02-21T11:45:04.654944
MEAN_MOTION    = 15.50807123
ECCENTRICITY   = .00076999
INCLINATION    = 51.6323
RA_OF_ASC_NODE = 152.2323
ARG_OF_PERICENTER = 100.5477
MEAN_ANOMALY   = 259.6380

EPHEMERIS_TYPE = 0
CLASSIFICATION_TYPE = U
NORAD_CAT_ID   = 67688
ELEMENT_SET_NO = 999
REV_AT_EPOCH   = 219
BSTAR          = .8084201E-3
MEAN_MOTION_DOT = .47348E-3
MEAN_MOTION_DDOT = 0

CCSDS_OMM_VERS = 2.0
CREATION_DATE  = 
ORIGINATOR     = 

OBJECT_NAME    = CREW DRAGON 12
OBJECT_ID      = 2026-031A
CENTER_NAME    = EARTH
REF_FRAME      = TEME
TIME_SYSTEM    = UTC
MEAN_ELEMENT_THEORY = SGP/SGP4

EPOCH          = 2026-02-21T18:22:01.806816
MEAN_MOTION    = 15.48189327
ECCENTRICITY   = .00085118
INCLINATION    = 51.6320
RA_OF_ASC_NODE = 151.0701
ARG_OF_PERICENTER = 119.8639
MEAN_ANOMALY   = 240.3195

EPHEMERIS_TYPE = 0
CLASSIFICATION_TYPE = U
NORAD_CAT_ID   = 67796
ELEMENT_SET_NO = 999
REV_AT_EPOCH   = 55383
BSTAR          = .20704396E-3
MEAN_MOTION_DOT = .10666E-3
MEAN_MOTION_DDOT = 0

